start=new Date('2022-11-08T00:00:00.000Z').valueOf();
sats=[{"ARG_OF_PERICENTER":"96.0782","MEAN_MOTION":"15.06406457","PERIAPSIS":"546.166","CENTER_NAME":"EARTH","FILE":"3648233","LAUNCH_DATE":"2021-04-29","GP_ID":"217104771","ELEMENT_SET_NO":"999","APOAPSIS":"548.221","COUNTRY_CODE":"US","REV_AT_EPOCH":"8475","RA_OF_ASC_NODE":"148.7450","TIME_SYSTEM":"UTC","OBJECT_ID":"2021-036Q","EPHEMERIS_TYPE":"0","SITE":"AFETR","OBJECT_NAME":"STARLINK-2540","MEAN_MOTION_DDOT":"0.0000000000000","PERIOD":"95.592","NORAD_CAT_ID":"48290","CLASSIFICATION_TYPE":"U","MEAN_MOTION_DOT":"0.00008055","OBJECT_TYPE":"PAYLOAD","BSTAR":"0.00055892000000","EPOCH":"2022-11-07T20:11:52.966464","REF_FRAME":"TEME","DECAY_DATE":null,"MEAN_ELEMENT_THEORY":"SGP4","TLE_LINE1":"1 48290U 21036Q   22311.84158526  .00008055  00000-0  55892-3 0  9993","RCS_SIZE":"LARGE","ECCENTRICITY":"0.00014840","SEMIMAJOR_AXIS":"6925.329","TLE_LINE2":"2 48290  53.0519 148.7450 0001484  96.0782 264.0376 15.06406457 84756","MEAN_ANOMALY":"264.0376","INCLINATION":"53.0519"},{"MEAN_MOTION_DDOT":"0.0000000000000","OBJECT_NAME":"STARLINK-2555","CLASSIFICATION_TYPE":"U","NORAD_CAT_ID":"48291","MEAN_MOTION_DOT":"0.00007614","PERIOD":"95.592","SITE":"AFETR","TLE_LINE2":"2 48291  53.0524 148.7598 0001302  80.0962 280.0174 15.06402566 84759","MEAN_ANOMALY":"280.0174","INCLINATION":"53.0524","REF_FRAME":"TEME","EPOCH":"2022-11-07T20:06:34.975584","DECAY_DATE":null,"BSTAR":"0.00052948000000","OBJECT_TYPE":"PAYLOAD","TLE_LINE1":"1 48291U 21036R   22311.83790481  .00007614  00000-0  52948-3 0  9994","RCS_SIZE":"LARGE","ECCENTRICITY":"0.00013020","SEMIMAJOR_AXIS":"6925.341","MEAN_ELEMENT_THEORY":"SGP4","LAUNCH_DATE":"2021-04-29","APOAPSIS":"548.107","GP_ID":"217105021","ELEMENT_SET_NO":"999","ARG_OF_PERICENTER":"80.0962","FILE":"3648233","PERIAPSIS":"546.304","MEAN_MOTION":"15.06402566","CENTER_NAME":"EARTH","OBJECT_ID":"2021-036R","EPHEMERIS_TYPE":"0","COUNTRY_CODE":"US","TIME_SYSTEM":"UTC","RA_OF_ASC_NODE":"148.7598","REV_AT_EPOCH":"8475"},{"OBJECT_ID":"2021-036S","EPHEMERIS_TYPE":"0","COUNTRY_CODE":"US","REV_AT_EPOCH":"8462","RA_OF_ASC_NODE":"152.7681","TIME_SYSTEM":"UTC","LAUNCH_DATE":"2021-04-29","ELEMENT_SET_NO":"999","GP_ID":"217105273","APOAPSIS":"548.309","ARG_OF_PERICENTER":"90.1361","CENTER_NAME":"EARTH","PERIAPSIS":"546.164","MEAN_MOTION":"15.06392530","FILE":"3648233","TLE_LINE2":"2 48292  53.0535 152.7681 0001549  90.1361 269.9806 15.06392530 84621","INCLINATION":"53.0535","MEAN_ANOMALY":"269.9806","OBJECT_TYPE":"PAYLOAD","BSTAR":"0.00008581600000","DECAY_DATE":null,"REF_FRAME":"TEME","EPOCH":"2022-11-06T23:40:30.310752","MEAN_ELEMENT_THEORY":"SGP4","ECCENTRICITY":"0.00015490","TLE_LINE1":"1 48292U 21036S   22310.98646193  .00000997  00000-0  85816-4 0  9998","RCS_SIZE":"LARGE","SEMIMAJOR_AXIS":"6925.371","OBJECT_NAME":"STARLINK-2542","MEAN_MOTION_DDOT":"0.0000000000000","PERIOD":"95.593","MEAN_MOTION_DOT":"0.00000997","CLASSIFICATION_TYPE":"U","NORAD_CAT_ID":"48292","SITE":"AFETR"},{"TLE_LINE2":"2 48293  53.0539 149.7033 0001153  92.6932 267.4189 15.06382784 84723","MEAN_ANOMALY":"267.4189","INCLINATION":"53.0539","BSTAR":"0.00042591000000","OBJECT_TYPE":"PAYLOAD","REF_FRAME":"TEME","EPOCH":"2022-11-07T15:09:20.663424","DECAY_DATE":null,"MEAN_ELEMENT_THEORY":"SGP4","TLE_LINE1":"1 48293U 21036T   22311.63148916  .00006065  00000-0  42591-3 0  9996","RCS_SIZE":"LARGE","ECCENTRICITY":"0.00011530","SEMIMAJOR_AXIS":"6925.401","OBJECT_NAME":"STARLINK-2550","MEAN_MOTION_DDOT":"0.0000000000000","PERIOD":"95.593","CLASSIFICATION_TYPE":"U","NORAD_CAT_ID":"48293","MEAN_MOTION_DOT":"0.00006065","SITE":"AFETR","OBJECT_ID":"2021-036T","EPHEMERIS_TYPE":"0","COUNTRY_CODE":"US","REV_AT_EPOCH":"8472","RA_OF_ASC_NODE":"149.7033","TIME_SYSTEM":"UTC","LAUNCH_DATE":"2021-04-29","GP_ID":"217105524","ELEMENT_SET_NO":"999","APOAPSIS":"548.065","ARG_OF_PERICENTER":"92.6932","PERIAPSIS":"546.468","MEAN_MOTION":"15.06382784","CENTER_NAME":"EARTH","FILE":"3648233"},{"OBJECT_ID":"2021-036U","EPHEMERIS_TYPE":"0","COUNTRY_CODE":"US","RA_OF_ASC_NODE":"148.8205","TIME_SYSTEM":"UTC","REV_AT_EPOCH":"8475","LAUNCH_DATE":"2021-04-29","APOAPSIS":"548.344","ELEMENT_SET_NO":"999","GP_ID":"217104271","ARG_OF_PERICENTER":"100.0202","FILE":"3648233","CENTER_NAME":"EARTH","MEAN_MOTION":"15.06389609","PERIAPSIS":"546.146","TLE_LINE2":"2 48294  53.0546 148.8205 0001587 100.0202 260.0966 15.06389609 84756","INCLINATION":"53.0546","MEAN_ANOMALY":"260.0966","DECAY_DATE":null,"REF_FRAME":"TEME","EPOCH":"2022-11-07T19:50:40.297056","BSTAR":"0.00019989000000","OBJECT_TYPE":"PAYLOAD","TLE_LINE1":"1 48294U 21036U   22311.82685529  .00002696  00000-0  19989-3 0  9995","RCS_SIZE":"LARGE","SEMIMAJOR_AXIS":"6925.380","ECCENTRICITY":"0.00015870","MEAN_ELEMENT_THEORY":"SGP4","MEAN_MOTION_DDOT":"0.0000000000000","OBJECT_NAME":"STARLINK-2533","MEAN_MOTION_DOT":"0.00002696","CLASSIFICATION_TYPE":"U","NORAD_CAT_ID":"48294","PERIOD":"95.593","SITE":"AFETR"},{"OBJECT_ID":"2021-036V","EPHEMERIS_TYPE":"0","COUNTRY_CODE":"US","REV_AT_EPOCH":"8473","RA_OF_ASC_NODE":"149.4412","TIME_SYSTEM":"UTC","LAUNCH_DATE":"2021-04-29","ELEMENT_SET_NO":"999","GP_ID":"217104521","APOAPSIS":"548.178","ARG_OF_PERICENTER":"80.9567","CENTER_NAME":"EARTH","MEAN_MOTION":"15.06393303","PERIAPSIS":"546.290","FILE":"3648233","TLE_LINE2":"2 48295  53.0541 149.4412 0001363  80.9567 279.1576 15.06393303 84733","INCLINATION":"53.0541","MEAN_ANOMALY":"279.1576","BSTAR":"0.00032696000000","OBJECT_TYPE":"PAYLOAD","DECAY_DATE":null,"REF_FRAME":"TEME","EPOCH":"2022-11-07T16:34:16.004928","MEAN_ELEMENT_THEORY":"SGP4","RCS_SIZE":"LARGE","TLE_LINE1":"1 48295U 21036V   22311.69046302  .00004591  00000-0  32696-3 0  9997","ECCENTRICITY":"0.00013630","SEMIMAJOR_AXIS":"6925.369","MEAN_MOTION_DDOT":"0.0000000000000","OBJECT_NAME":"STARLINK-2535","PERIOD":"95.593","MEAN_MOTION_DOT":"0.00004591","CLASSIFICATION_TYPE":"U","NORAD_CAT_ID":"48295","SITE":"AFETR"},{"MEAN_MOTION_DDOT":"0.0000000000000","OBJECT_NAME":"STARLINK-2546","PERIOD":"95.593","MEAN_MOTION_DOT":"0.00002524","CLASSIFICATION_TYPE":"U","NORAD_CAT_ID":"48296","SITE":"AFETR","TLE_LINE2":"2 48296  53.0535 149.4531 0001389 100.8739 259.2407 15.06384671 84730","INCLINATION":"53.0535","MEAN_ANOMALY":"259.2407","OBJECT_TYPE":"PAYLOAD","BSTAR":"0.00018834000000","DECAY_DATE":null,"EPOCH":"2022-11-07T16:28:58.043424","REF_FRAME":"TEME","MEAN_ELEMENT_THEORY":"SGP4","ECCENTRICITY":"0.00013890","TLE_LINE1":"1 48296U 21036W   22311.68678291  .00002524  00000-0  18834-3 0  9997","RCS_SIZE":"LARGE","SEMIMAJOR_AXIS":"6925.396","LAUNCH_DATE":"2021-04-29","ELEMENT_SET_NO":"999","GP_ID":"217105773","APOAPSIS":"548.222","ARG_OF_PERICENTER":"100.8739","CENTER_NAME":"EARTH","MEAN_MOTION":"15.06384671","PERIAPSIS":"546.299","FILE":"3648233","OBJECT_ID":"2021-036W","EPHEMERIS_TYPE":"0","COUNTRY_CODE":"US","REV_AT_EPOCH":"8473","RA_OF_ASC_NODE":"149.4531","TIME_SYSTEM":"UTC"},{"OBJECT_ID":"2021-036X","EPHEMERIS_TYPE":"0","COUNTRY_CODE":"US","REV_AT_EPOCH":"8473","RA_OF_ASC_NODE":"149.4631","TIME_SYSTEM":"UTC","LAUNCH_DATE":"2021-04-29","GP_ID":"217106024","ELEMENT_SET_NO":"999","APOAPSIS":"548.178","ARG_OF_PERICENTER":"80.6737","MEAN_MOTION":"15.06393671","PERIAPSIS":"546.288","CENTER_NAME":"EARTH","FILE":"3648233","TLE_LINE2":"2 48297  53.0550 149.4631 0001364  80.6737 279.4406 15.06393671 84738","MEAN_ANOMALY":"279.4406","INCLINATION":"53.0550","OBJECT_TYPE":"PAYLOAD","BSTAR":"0.00031288000000","EPOCH":"2022-11-07T16:23:37.825152","REF_FRAME":"TEME","DECAY_DATE":null,"MEAN_ELEMENT_THEORY":"SGP4","TLE_LINE1":"1 48297U 21036X   22311.68307668  .00004381  00000-0  31288-3 0  9996","SEMIMAJOR_AXIS":"6925.368","RCS_SIZE":"LARGE","ECCENTRICITY":"0.00013640","MEAN_MOTION_DDOT":"0.0000000000000","OBJECT_NAME":"STARLINK-2544","PERIOD":"95.593","NORAD_CAT_ID":"48297","CLASSIFICATION_TYPE":"U","MEAN_MOTION_DOT":"0.00004381","SITE":"AFETR"},{"RA_OF_ASC_NODE":"149.1951","TIME_SYSTEM":"UTC","REV_AT_EPOCH":"8474","COUNTRY_CODE":"US","EPHEMERIS_TYPE":"0","OBJECT_ID":"2021-036Y","FILE":"3648233","PERIAPSIS":"546.193","MEAN_MOTION":"15.06399847","CENTER_NAME":"EARTH","ARG_OF_PERICENTER":"70.1229","APOAPSIS":"548.236","GP_ID":"217104772","ELEMENT_SET_NO":"999","LAUNCH_DATE":"2021-04-29","TLE_LINE1":"1 48298U 21036Y   22311.74574653  .00002824  00000-0  20838-3 0  9993","SEMIMAJOR_AXIS":"6925.349","RCS_SIZE":"LARGE","ECCENTRICITY":"0.00014750","MEAN_ELEMENT_THEORY":"SGP4","REF_FRAME":"TEME","EPOCH":"2022-11-07T17:53:52.500192","DECAY_DATE":null,"BSTAR":"0.00020838000000","OBJECT_TYPE":"PAYLOAD","MEAN_ANOMALY":"289.9919","INCLINATION":"53.0554","TLE_LINE2":"2 48298  53.0554 149.1951 0001475  70.1229 289.9919 15.06399847 84745","SITE":"AFETR","NORAD_CAT_ID":"48298","CLASSIFICATION_TYPE":"U","MEAN_MOTION_DOT":"0.00002824","PERIOD":"95.592","OBJECT_NAME":"STARLINK-2559","MEAN_MOTION_DDOT":"0.0000000000000"},{"MEAN_ELEMENT_THEORY":"SGP4","SEMIMAJOR_AXIS":"6925.331","TLE_LINE1":"1 48299U 21036Z   22311.80841317  .00006094  00000-0  42758-3 0  9993","RCS_SIZE":"LARGE","ECCENTRICITY":"0.00014040","BSTAR":"0.00042758000000","OBJECT_TYPE":"PAYLOAD","EPOCH":"2022-11-07T19:24:06.897888","REF_FRAME":"TEME","DECAY_DATE":null,"MEAN_ANOMALY":"269.1515","INCLINATION":"53.0530","TLE_LINE2":"2 48299  53.0530 148.8937 0001404  90.9635 269.1515 15.06405735 84750","SITE":"AFETR","PERIOD":"95.592","NORAD_CAT_ID":"48299","CLASSIFICATION_TYPE":"U","MEAN_MOTION_DOT":"0.00006094","MEAN_MOTION_DDOT":"0.0000000000000","OBJECT_NAME":"STARLINK-2557","REV_AT_EPOCH":"8475","TIME_SYSTEM":"UTC","RA_OF_ASC_NODE":"148.8937","COUNTRY_CODE":"US","EPHEMERIS_TYPE":"0","OBJECT_ID":"2021-036Z","MEAN_MOTION":"15.06405735","PERIAPSIS":"546.224","CENTER_NAME":"EARTH","FILE":"3648233","ARG_OF_PERICENTER":"90.9635","GP_ID":"217105022","ELEMENT_SET_NO":"999","APOAPSIS":"548.168","LAUNCH_DATE":"2021-04-29"}];
